[{"OBJECT_NAME":"DONGPO 10","OBJECT_ID":"2022-167H","EPOCH":"2026-03-09T22:44:56.137344","MEAN_MOTION":15.322785,"ECCENTRICITY":0.00061655,"INCLINATION":97.685,"RA_OF_ASC_NODE":235.0962,"ARG_OF_PERICENTER":106.9526,"MEAN_ANOMALY":253.2392,"EPHEMERIS_TYPE":0,"CLASSIFICATION_TYPE":"U","NORAD_CAT_ID":54689,"ELEMENT_SET_NO":999,"REV_AT_EPOCH":18015,"BSTAR":0.00049390523,"MEAN_MOTION_DOT":0.00015333,"MEAN_MOTION_DDOT":0},{"OBJECT_NAME":"STARLINK-31454","OBJECT_ID":"2024-036S","EPOCH":"2026-03-09T07:50:39.827904","MEAN_MOTION":15.30194323,"ECCENTRICITY":0.00013146,"INCLINATION":53.1592,"RA_OF_ASC_NODE":80.0967,"ARG_OF_PERICENTER":85.187,"MEAN_ANOMALY":274.9281,"EPHEMERIS_TYPE":0,"CLASSIFICATION_TYPE":"U","NORAD_CAT_ID":59014,"ELEMENT_SET_NO":999,"REV_AT_EPOCH":11526,"BSTAR":5.5488075e-5,"MEAN_MOTION_DOT":1.284e-5,"MEAN_MOTION_DDOT":0}]
